"spkid","full_name","name","diameter","e","a","q","i","om","w","ma","albedo","n","epoch"
54338832,"       (2023 AJ1)",,,0.5352,1.7,0.790,66.26,289.16,245.40,264.07,,0.4445,2460600.5
54338833,"       (2023 AK1)",,,0.5833,2.514,1.048,1.42,161.09,297.99,3.97,,0.2473,2459964.5
54338831,"       (2023 AL1)",,,0.5861,2.454,1.016,1.35,136.46,329.02,2.73,,0.2564,2459962.5
54338887,"       (2023 AM1)",,,0.1739,1.134,0.937,6.38,294.88,246.87,114.10,,0.8165,2460600.5
54338888,"       (2023 AN1)",,,0.2683,1.111,0.813,20.53,298.88,80.48,243.83,,0.8421,2460600.5
54338889,"       (2023 AO1)",,,0.5210,2.212,1.060,4.72,210.95,327.50,172.76,,0.2996,2460600.5
54338890,"       (2023 AP1)",,,0.2762,1.039,0.752,9.85,300.68,279.70,161.45,,0.9301,2460600.5
54338891,"       (2023 AQ1)",,,0.6078,1.946,0.763,1.73,1.94,189.23,341.31,,0.3632,2459960.5
54338971,"       (2023 AR1)",,,0.2949,1.746,1.231,31.44,276.38,231.50,250.16,,0.4272,2460600.5
54338972,"       (2023 AS1)",,,0.4465,1.826,1.011,4.79,123.70,13.50,247.37,,0.3994,2460600.5
54338973,"       (2023 AT1)",,,0.2491,1.369,1.028,5.13,188.04,353.50,345.72,,0.6155,2460600.5
54338974,"       (2023 AU1)",,,0.2954,1.134,0.799,23.58,122.90,102.50,87.70,,0.8158,2460600.5
54338975,"       (2023 AV1)",,,0.4877,1.897,0.972,2.03,298.06,146.75,9.05,,0.3772,2459958.5
54338976,"       (2023 AW1)",,,0.5630,2.809,1.228,4.69,293.78,201.70,129.32,,0.2094,2460600.5
54338978,"       (2023 AA2)",,,0.6027,2.408,0.957,9.63,143.35,16.05,157.43,,0.2638,2460600.5
54338977,"       (2023 AB2)",,,0.4845,1.883,0.971,6.07,150.70,20.71,221.69,,0.3814,2460600.5
54339156,"       (2023 AC2)",,,0.6193,2.535,0.965,6.45,98.76,339.29,7.22,,0.2442,2459958.5
54339170,"       (2023 AE2)",,,0.4767,1.043,0.546,7.15,114.73,127.01,288.80,,0.9254,2459963.5
54339172,"       (2023 AG2)",,,0.4023,1.856,1.110,6.86,241.87,165.39,285.99,,0.3897,2460600.5
54339173,"       (2023 AH2)",,,0.3698,1.649,1.039,13.06,136.92,54.31,265.27,,0.4654,2460600.5
54339174,"       (2023 AJ2)",,,0.5405,2.382,1.095,4.23,305.76,196.96,164.18,,0.268,2460600.5
54339175,"       (2023 AK2)",,,0.4918,2.069,1.052,0.86,152.42,320.98,358.68,,0.3311,2459958.5
54339176,"       (2023 AL2)",,,0.5851,1.987,0.824,1.61,297.87,108.86,17.27,,0.3519,2459958.5
54339183,"       (2023 AM2)",,,0.2703,1.387,1.012,2.47,255.70,264.36,356.13,,0.6035,2460600.5
54339217,"       (2023 AN2)",,,0.5322,2.561,1.198,5.79,129.10,268.97,183.23,,0.2405,2460600.5
54339968,"       (2023 AA3)",,,0.1405,1.372,1.179,26.27,107.18,50.43,329.90,,0.6132,2459962.5
54339973,"       (2023 AB3)",,,0.4421,1.917,1.070,9.03,123.54,310.82,16.15,,0.3712,2459961.5
54357453,"       (2023 AN6)",,,0.5773,2.03,0.858,11.45,294.84,130.50,11.70,,0.3407,2459959.5
54339177,"       (2023 BB)",,,0.4704,1.872,0.991,16.82,128.97,245.75,34.58,,0.3848,2459961.5
54339182,"       (2023 BC)",,,0.4814,1.515,0.786,4.59,320.34,234.18,330.48,,0.5286,2459962.5
54339185,"       (2023 BD)",,,0.5730,1.919,0.819,7.06,172.63,11.91,340.65,,0.3709,2459962.5
54339184,"       (2023 BE)",,,0.5294,2.367,1.114,7.12,107.61,352.00,4.83,,0.2707,2459961.5
54339213,"       (2023 BF)",,,0.1385,1.146,0.987,12.20,116.15,37.89,124.38,,0.8033,2460600.5
54339214,"       (2023 BG)",,,0.3042,0.9814,0.683,11.08,141.60,100.17,190.06,,1.014,2460600.5
54339216,"       (2023 BH)",,,0.6229,2.254,0.850,12.94,26.70,183.05,158.40,,0.2913,2460600.5
54339215,"       (2023 BJ)",,,0.3306,1.678,1.123,34.48,125.88,306.88,26.41,,0.4533,2459964.5
54339241,"       (2023 BL)",,,0.4258,1.707,0.980,15.25,106.87,265.98,57.02,,0.4421,2459961.5
54339242,"       (2023 BM)",,,0.3322,1.466,0.979,28.94,114.41,327.90,16.99,,0.5551,2459962.5
54339243,"       (2023 BN)",,,0.4122,1.742,1.024,11.53,297.06,170.52,276.38,,0.4286,2460600.5
54339244,"       (2023 BO)",,,0.3141,1.717,1.177,11.33,81.66,64.19,344.60,,0.4382,2459963.5
54339245,"       (2023 BP)",,,0.5071,1.861,0.917,1.67,118.39,314.61,14.55,,0.3883,2459965.5
54339246,"       (2023 BR)",,,0.3234,1.377,0.932,26.98,120.13,57.87,327.66,,0.61,2459960.5
54339757,"       (2023 BS)",,,0.5116,1.991,0.973,10.71,131.99,39.22,207.51,,0.3508,2460600.5
54339758,"       (2023 BT)",,,0.5600,2.525,1.111,21.06,254.09,150.92,358.52,,0.2456,2459964.5
54339759,"       (2023 BU)",,,0.1103,1.107,0.984,3.73,125.11,356.09,176.85,,0.8467,2460600.5
54339760,"       (2023 BW)",,,0.1433,0.9508,0.815,5.51,141.37,209.10,73.59,,1.063,2460600.5
54339761,"       (2023 BX)",,,0.3457,1.663,1.088,1.60,57.60,99.60,274.47,,0.4597,2460600.5
54339762,"       (2023 BY)",,,0.4296,0.8317,0.474,0.90,59.46,202.40,4.13,,1.299,2460600.5
54339763,"       (2023 BZ)",,,0.6090,2.503,0.979,2.48,276.29,170.69,164.98,,0.2488,2460600.5
54339764,"       (2023 BA1)",,,0.3448,1.204,0.789,13.96,302.69,257.23,70.51,,0.7458,2460600.5
54339765,"       (2023 BB1)",,,0.5898,0.7227,0.296,10.80,302.73,20.97,46.33,,1.604,2460600.5
54339871,"       (2023 BH1)",,,0.4876,1.773,0.908,2.72,123.94,42.16,346.04,,0.4175,2459967.5
54339872,"       (2023 BK1)",,,0.1126,1.153,1.023,20.33,302.54,197.07,130.08,,0.7961,2460600.5
54339873,"       (2023 BL1)",,,0.5739,1.967,0.838,11.58,304.85,234.20,211.84,,0.3572,2460600.5
54339874,"       (2023 BM1)",,,0.1747,1.07,0.883,21.25,303.27,78.14,284.02,,0.8905,2460600.5
54339875,"       (2023 BN1)",,,0.7092,1.322,0.384,2.51,107.87,253.11,33.03,,0.6487,2459967.5
54339876,"       (2023 BO1)",,,0.0854,1.273,1.164,20.94,308.15,209.31,51.35,,0.6861,2460600.5
54339877,"       (2023 BP1)",,,0.2421,1.173,0.889,10.06,118.84,283.81,186.26,,0.7761,2460600.5
54339879,"       (2023 BQ1)",,,0.3107,1.49,1.027,31.68,119.13,358.50,2.92,,0.5416,2459967.5
54339878,"       (2023 BR1)",,,0.5737,2.139,0.912,6.30,119.36,66.56,344.49,,0.3151,2459969.5
54339880,"       (2023 BS1)",,,0.6089,2.506,0.980,3.72,253.62,276.08,351.30,,0.2485,2459965.5
54339881,"       (2023 BT1)",,,0.5001,1.964,0.982,3.79,313.72,210.33,214.16,,0.3582,2460600.5
54339882,"       (2023 BU1)",,,0.4069,1.146,0.680,23.50,128.34,103.54,304.96,,0.8033,2459970.5
54339963,"       (2023 BZ1)",,,0.4116,1.707,1.004,1.87,92.27,24.20,281.99,,0.442,2460600.5
54339964,"       (2023 BA2)",,,0.5110,1.698,0.830,2.66,123.57,295.14,21.54,,0.4454,2459968.5
54339965,"       (2023 BB2)",,,0.3408,1.223,0.806,10.43,124.72,109.07,35.38,,0.7288,2460600.5
54339966,"       (2023 BC2)",,,0.3952,0.7429,0.449,2.64,123.62,183.38,174.20,,1.539,2459968.5
54339967,"       (2023 BD2)",,,0.0916,1.21,1.100,19.70,302.55,230.96,318.71,,0.7401,2459968.5
54339969,"       (2023 BE2)",,,0.5111,1.978,0.967,9.97,123.72,21.27,217.79,,0.3544,2460600.5
54339970,"       (2023 BF2)",,,0.3512,1.542,1.001,4.80,300.66,146.43,345.68,,0.5146,2460600.5
54339971,"       (2023 BG2)",,,0.4359,1.8,1.015,7.90,303.68,138.63,276.44,,0.4082,2460600.5
54339972,"       (2023 BH2)",,,0.3976,1.413,0.851,1.46,294.06,129.83,36.92,,0.5867,2460600.5
54339974,"       (2023 BJ2)",,,0.4904,1.792,0.913,9.28,112.17,309.44,21.22,,0.4109,2459966.5
54339975,"       (2023 BK2)",,,0.3614,1.636,1.045,2.00,164.94,324.86,292.97,,0.4708,2460600.5
54339976,"       (2023 BL2)",,,0.2745,0.9682,0.702,11.67,125.37,109.76,213.67,,1.035,2460600.5
54339977,"       (2023 BM2)",,,0.2763,1.296,0.938,6.38,127.69,286.57,106.17,,0.668,2460600.5
54340039,"       (2023 BN2)",,,0.6437,2.734,0.974,26.61,303.97,134.46,149.26,,0.218,2460600.5
54340040,"       (2023 BP2)",,,0.2552,1.158,0.863,2.12,117.08,274.97,202.73,,0.7908,2460600.5
54340041,"       (2023 BQ2)",,,0.4866,1.374,0.705,2.61,311.34,261.71,350.25,,0.6123,2460600.5
54340046,"       (2023 BU2)",,,0.7063,2.267,0.666,8.49,117.60,277.29,206.29,,0.2887,2460600.5
54340043,"       (2023 BV2)",,,0.4887,1.934,0.989,2.67,10.63,70.54,244.25,,0.3664,2460600.5
54340042,"       (2023 BW2)",,,0.3452,1.557,1.019,0.44,228.09,231.89,13.52,,0.5074,2459976.5
54340044,"       (2023 BX2)",,,0.4507,1.996,1.097,6.92,141.97,354.07,213.90,,0.3494,2460600.5
54340045,"       (2023 BY2)",,,0.6480,1.96,0.690,4.98,121.50,282.86,244.03,,0.3592,2460600.5
54340047,"       (2023 BZ2)",,,0.4036,1.693,1.010,22.21,117.83,39.89,345.56,,0.4473,2459968.5
54340048,"       (2023 BA3)",,,0.3475,1.381,0.901,5.82,131.60,47.86,356.28,,0.6075,2460600.5
54340097,"       (2023 BS3)",,,0.4890,2.404,1.228,13.40,312.71,235.04,148.69,,0.2645,2460600.5
54340098,"       (2023 BT3)",,,0.4087,1.512,0.894,5.51,306.85,227.51,313.99,,0.5302,2460600.5
54340099,"       (2023 BY3)",,,0.5704,2.545,1.093,30.38,122.08,0.39,0.92,,0.2428,2459970.5
54340100,"       (2023 BZ3)",,,0.5006,1.972,0.985,0.77,132.75,356.40,223.10,,0.356,2460600.5
54340101,"       (2023 BA4)",,,0.3775,0.7497,0.467,7.29,131.75,184.73,37.50,,1.518,2460600.5
54340102,"       (2023 BB4)",,,0.5959,2.558,1.034,19.69,94.04,100.95,133.64,,0.2409,2460600.5
54340105,"       (2023 BC4)",,,0.6307,2.699,0.997,14.10,128.69,0.34,357.95,,0.2223,2459967.5
54340103,"       (2023 BD4)",,,0.4305,2.208,1.258,9.27,133.88,17.13,188.38,,0.3004,2460600.5
54340106,"       (2023 BE4)",,,0.3994,1.01,0.606,15.02,301.37,61.16,74.51,,0.9713,2459967.5
54340104,"       (2023 BF4)",,,0.4472,1.859,1.027,33.28,124.29,12.03,357.39,,0.389,2459970.5
54340107,"       (2023 BG4)",,,0.4481,1.795,0.991,13.14,131.43,31.08,347.23,,0.4097,2459971.5
54340108,"       (2023 BH4)",,,0.1557,1.396,1.179,17.84,279.92,223.94,337.86,,0.5973,2459970.5
54340109,"       (2023 BJ4)",,,0.5293,2.322,1.093,4.08,79.77,62.84,171.51,,0.2785,2460600.5
54340152,"       (2023 BK4)",,,0.4816,1.93,1.000,9.54,129.28,353.16,232.22,,0.3676,2460600.5
54340153,"       (2023 BL4)",,,0.5133,2.067,1.006,6.94,127.80,11.41,356.85,,0.3316,2459972.5
54340154,"       (2023 BM4)",,,0.2061,0.9776,0.776,1.54,187.79,173.41,27.22,,1.02,2460600.5
54340155,"       (2023 BN4)",,,0.6131,2.342,0.906,8.23,310.30,134.38,181.55,,0.2749,2460600.5
54340156,"       (2023 BY4)",,,0.5358,1.881,0.873,3.15,292.58,244.12,345.13,,0.3822,2459971.5
54340157,"       (2023 BZ4)",,,0.2771,1.192,0.862,2.12,198.11,207.36,165.10,,0.7573,2460600.5
54340158,"       (2023 BA5)",,,0.6495,3.405,1.193,3.67,107.47,18.80,359.59,,0.1568,2459967.5
